- id: gps-23027
  name: NAVSTAR 36 (USA 100)
  allegiance: friendly
  components:
    - kind: space_orbit
      data:
        line1: "1 23027U 94016A   26086.28447406  .00000005  00000+0  00000+0 0  9994"
        line2: "2 23027  53.1824 276.9575 0033497 216.2908 324.0800  1.86674830231695"
        fov_half_angle_deg: 5.0
    - kind: symbol
      data:
        sidc_template:
          version: "10"
          context: reality
          standard_identity: friend
          symbol_set: space
          status: present
          hqtfd: not_applicable
          amplifier: unspecified
          entity: code_110700
          modifier_one: code_02
          modifier_two: code_00
